{
  "type": "FeatureCollection",
  "features": [
    {
      "type": "Feature",
      "properties": {
        "norad_id": 67067,
        "name": "HULIANWANG DIGUI 16J",
        "group": "last-30-days",
        "lat": 38.73594541126973,
        "lon": 142.55351058787272,
        "alt_km": 803.9680211247041,
        "timestamp": "2025-12-14T11:29:48.801268+00:00",
        "meta_object_name": "HULIANWANG DIGUI 16J",
        "meta_object_id": "2025-295J",
        "meta_epoch": "2025-12-12T05:06:18.555264",
        "meta_mean_motion": 14.26361638,
        "meta_eccentricity": 0.00104901,
        "meta_inclination": 50.0044,
        "meta_ra_of_asc_node": 14.4694,
        "meta_arg_of_pericenter": 253.0387,
        "meta_mean_anomaly": 106.9378,
        "meta_ephemeris_type": 0,
        "meta_classification_type": "U",
        "meta_norad_cat_id": 67067,
        "meta_element_set_no": 999,
        "meta_rev_at_epoch": 4,
        "meta_bstar": 6.475965e-06,
        "meta_mean_motion_dot": -1.45e-06,
        "meta_mean_motion_ddot": 0,
        "tle_line1": "1 67067U 25295J   25346.21271476 -.00000145  00000+0  64760-5 0  9997",
        "tle_line2": "2 67067  50.0044  14.4694 0010490 253.0387 106.9378 14.26361638    49"
      },
      "geometry": {
        "type": "Point",
        "coordinates": [
          142.55351058787272,
          38.73594541126973
        ]
      }
    },
    {
      "type": "Feature",
      "properties": {
        "norad_id": 67070,
        "name": "2025-296B",
        "group": "last-30-days",
        "lat": -16.958493289694875,
        "lon": 50.75325820545248,
        "alt_km": 788.7690829306184,
        "timestamp": "2025-12-14T11:29:48.801278+00:00",
        "meta_object_name": "2025-296B",
        "meta_object_id": "2025-296B",
        "meta_epoch": "2025-12-13T01:08:41.999712",
        "meta_mean_motion": 14.29360286,
        "meta_eccentricity": 0.001167,
        "meta_inclination": 49.96,
        "meta_ra_of_asc_node": 71.6976,
        "meta_arg_of_pericenter": 307.015,
        "meta_mean_anomaly": 220.3788,
        "meta_ephemeris_type": 0,
        "meta_classification_type": "U",
        "meta_norad_cat_id": 67070,
        "meta_element_set_no": 999,
        "meta_rev_at_epoch": 0,
        "meta_bstar": 0,
        "meta_mean_motion_dot": -1.62e-06,
        "meta_mean_motion_ddot": 0,
        "tle_line1": "1 67070U 25296B   25347.04770833 -.00000162  00000+0  00000+0 0  9995",
        "tle_line2": "2 67070  49.9600  71.6976 0011670 307.0150 220.3788 14.29360286    08"
      },
      "geometry": {
        "type": "Point",
        "coordinates": [
          50.75325820545248,
          -16.958493289694875
        ]
      }
    },
    {
      "type": "Feature",
      "properties": {
        "norad_id": 67071,
        "name": "KZ-11 R/B",
        "group": "last-30-days",
        "lat": -5.345741993477129,
        "lon": 86.28202320173509,
        "alt_km": 183.40109397686228,
        "timestamp": "2025-12-14T11:29:48.801291+00:00",
        "meta_object_name": "KZ-11 R/B",
        "meta_object_id": "2025-296C",
        "meta_epoch": "2025-12-13T03:57:12.269376",
        "meta_mean_motion": 14.41614344,
        "meta_eccentricity": 0.08603054,
        "meta_inclination": 41.3405,
        "meta_ra_of_asc_node": 99.1629,
        "meta_arg_of_pericenter": 320.0027,
        "meta_mean_anomaly": 34.035,
        "meta_ephemeris_type": 0,
        "meta_classification_type": "U",
        "meta_norad_cat_id": 67071,
        "meta_element_set_no": 999,
        "meta_rev_at_epoch": 2,
        "meta_bstar": 0.00012972566,
        "meta_mean_motion_dot": 0.00801494,
        "meta_mean_motion_ddot": 4.646094e-06,
        "tle_line1": "1 67071U 25296C   25347.16472534  .00801494  46461-5  12973-3 0  9995",
        "tle_line2": "2 67071  41.3405  99.1629 0860305 320.0027  34.0350 14.41614344    21"
      },
      "geometry": {
        "type": "Point",
        "coordinates": [
          86.28202320173509,
          -5.345741993477129
        ]
      }
    }
  ]
}